CTC1_L_00266001-01
1 10000U 23725DA  26075.70032407  .00000000  00000+0  00000-0 0  9992
2 10000  90.0000   0.0000 0000000   0.0000   0.0000 15.38683946    16
CTC1_L_00266001-02
1 10001U 24095FI  26075.70032407  .00000000  00000+0  00000-0 0  9994
2 10001  90.0000   0.0000 0000000   0.0000  90.0000 15.38683946    16
CTC1_L_00266001-03
1 10002U 26460TH  26075.70032407  .00000000  00000+0  00000-0 0  9993
2 10002  90.0000   0.0000 0000000   0.0000 180.0000 15.38683946    17
CTC1_L_00266001-04
1 10003U 25279NS  26075.70032407  .00000000  00000+0  00000-0 0  9991
2 10003  90.0000   0.0000 0000000   0.0000 270.0000 15.38683946    18
CTC1_L_00266002-01
1 10004U 23246XX  26075.70032407  .00000000  00000+0  00000-0 0  9994
2 10004  90.0000  12.0000 0000000   0.0000  12.0000 15.38683946    16
CTC1_L_00266002-02
1 10005U 24410XY  26075.70032407  .00000000  00000+0  00000-0 0  9999
2 10005  90.0000  12.0000 0000000   0.0000 102.0000 15.38683946    17
CTC1_L_00266002-03
1 10006U 23132TA  26075.70032407  .00000000  00000+0  00000-0 0  9990
2 10006  90.0000  12.0000 0000000   0.0000 192.0000 15.38683946    17
CTC1_L_00266002-04
1 10007U 25040HU  26075.70032407  .00000000  00000+0  00000-0 0  9991
2 10007  90.0000  12.0000 0000000   0.0000 282.0000 15.38683946    18
CTC1_L_00266003-01
1 10008U 26276VZ  26075.70032407  .00000000  00000+0  00000-0 0  9994
2 10008  90.0000  24.0000 0000000   0.0000  24.0000 15.38683946    16
CTC1_L_00266003-02
1 10009U 23249KE  26075.70032407  .00000000  00000+0  00000-0 0  9992
2 10009  90.0000  24.0000 0000000   0.0000 114.0000 15.38683946    17
CTC1_L_00266003-03
1 10010U 24358JW  26075.70032407  .00000000  00000+0  00000-0 0  9996
2 10010  90.0000  24.0000 0000000   0.0000 204.0000 15.38683946    19
CTC1_L_00266003-04
1 10011U 24407RC  26075.70032407  .00000000  00000+0  00000-0 0  9992
2 10011  90.0000  24.0000 0000000   0.0000 294.0000 15.38683946    19
CTC1_L_00266004-01
1 10012U 26954NY  26075.70032407  .00000000  00000+0  00000-0 0  9992
2 10012  90.0000  36.0000 0000000   0.0000  36.0000 15.38683946    17
CTC1_L_00266004-02
1 10013U 23802PZ  26075.70032407  .00000000  00000+0  00000-0 0  9992
2 10013  90.0000  36.0000 0000000   0.0000 126.0000 15.38683946    18
CTC1_L_00266004-03
1 10014U 25408QV  26075.70032407  .00000000  00000+0  00000-0 0  9997
2 10014  90.0000  36.0000 0000000   0.0000 216.0000 15.38683946    19
CTC1_L_00266004-04
1 10015U 24897XG  26075.70032407  .00000000  00000+0  00000-0 0  9999
2 10015  90.0000  36.0000 0000000   0.0000 306.0000 15.38683946    10
CTC1_L_00266005-01
1 10016U 26901GG  26075.70032407  .00000000  00000+0  00000-0 0  9998
2 10016  90.0000  48.0000 0000000   0.0000  48.0000 15.38683946    17
CTC1_L_00266005-02
1 10017U 25404WG  26075.70032407  .00000000  00000+0  00000-0 0  9996
2 10017  90.0000  48.0000 0000000   0.0000 138.0000 15.38683946    18
CTC1_L_00266005-03
1 10018U 25143XC  26075.70032407  .00000000  00000+0  00000-0 0  9997
2 10018  90.0000  48.0000 0000000   0.0000 228.0000 15.38683946    19
CTC1_L_00266005-04
1 10019U 22506S   26075.70032407  .00000000  00000+0  00000-0 0  9998
2 10019  90.0000  48.0000 0000000   0.0000 318.0000 15.38683946    10
CTC1_L_00266006-01
1 10020U 25784JN  26075.70032407  .00000000  00000+0  00000-0 0  9991
2 10020  90.0000  60.0000 0000000   0.0000  60.0000 15.38683946    10
CTC1_L_00266006-02
1 10021U 23527ML  26075.70032407  .00000000  00000+0  00000-0 0  9995
2 10021  90.0000  60.0000 0000000   0.0000 150.0000 15.38683946    11
CTC1_L_00266006-03
1 10022U 23209XC  26075.70032407  .00000000  00000+0  00000-0 0  9993
2 10022  90.0000  60.0000 0000000   0.0000 240.0000 15.38683946    12
CTC1_L_00266006-04
1 10023U 25229QC  26075.70032407  .00000000  00000+0  00000-0 0  9998
2 10023  90.0000  60.0000 0000000   0.0000 330.0000 15.38683946    13
CTC1_L_00266007-01
1 10024U 25124VU  26075.70032407  .00000000  00000+0  00000-0 0  9993
2 10024  90.0000  72.0000 0000000   0.0000  72.0000 15.38683946    10
CTC1_L_00266007-02
1 10025U 24563BD  26075.70032407  .00000000  00000+0  00000-0 0  9990
2 10025  90.0000  72.0000 0000000   0.0000 162.0000 15.38683946    11
CTC1_L_00266007-03
1 10026U 22172PR  26075.70032407  .00000000  00000+0  00000-0 0  9995
2 10026  90.0000  72.0000 0000000   0.0000 252.0000 15.38683946    12
CTC1_L_00266007-04
1 10027U 25961YP  26075.70032407  .00000000  00000+0  00000-0 0  9995
2 10027  90.0000  72.0000 0000000   0.0000 342.0000 15.38683946    13
CTC1_L_00266008-01
1 10028U 22172CC  26075.70032407  .00000000  00000+0  00000-0 0  9997
2 10028  90.0000  84.0000 0000000   0.0000  84.0000 15.38683946    10
CTC1_L_00266008-02
1 10029U 23202VJ  26075.70032407  .00000000  00000+0  00000-0 0  9993
2 10029  90.0000  84.0000 0000000   0.0000 174.0000 15.38683946    11
CTC1_L_00266008-03
1 10030U 25515YD  26075.70032407  .00000000  00000+0  00000-0 0  9994
2 10030  90.0000  84.0000 0000000   0.0000 264.0000 15.38683946    13
CTC1_L_00266008-04
1 10031U 24588IM  26075.70032407  .00000000  00000+0  00000-0 0  9994
2 10031  90.0000  84.0000 0000000   0.0000 354.0000 15.38683946    14
CTC1_L_00266009-01
1 10032U 23092AF  26075.70032407  .00000000  00000+0  00000-0 0  9994
2 10032  90.0000  96.0000 0000000   0.0000  96.0000 15.38683946    11
CTC1_L_00266009-02
1 10033U 23239BZ  26075.70032407  .00000000  00000+0  00000-0 0  9998
2 10033  90.0000  96.0000 0000000   0.0000 186.0000 15.38683946    12
CTC1_L_00266009-03
1 10034U 25682AI  26075.70032407  .00000000  00000+0  00000-0 0  9993
2 10034  90.0000  96.0000 0000000   0.0000 276.0000 15.38683946    13
CTC1_L_00266009-04
1 10035U 26458US  26075.70032407  .00000000  00000+0  00000-0 0  9996
2 10035  90.0000  96.0000 0000000   0.0000   6.0000 15.38683946    15
CTC1_L_00266010-01
1 10036U 25429GR  26075.70032407  .00000000  00000+0  00000-0 0  9994
2 10036  90.0000 108.0000 0000000   0.0000 108.0000 15.38683946    13
CTC1_L_00266010-02
1 10037U 23388DK  26075.70032407  .00000000  00000+0  00000-0 0  9997
2 10037  90.0000 108.0000 0000000   0.0000 198.0000 15.38683946    13
CTC1_L_00266010-03
1 10038U 25105QR  26075.70032407  .00000000  00000+0  00000-0 0  9997
2 10038  90.0000 108.0000 0000000   0.0000 288.0000 15.38683946    14
CTC1_L_00266010-04
1 10039U 25949IE  26075.70032407  .00000000  00000+0  00000-0 0  9994
2 10039  90.0000 108.0000 0000000   0.0000  18.0000 15.38683946    16
CTC1_L_00266011-01
1 10040U 25411DK  26075.70032407  .00000000  00000+0  00000-0 0  9990
2 10040  90.0000 120.0000 0000000   0.0000 120.0000 15.38683946    16
CTC1_L_00266011-02
1 10041U 23022ZQ  26075.70032407  .00000000  00000+0  00000-0 0  9997
2 10041  90.0000 120.0000 0000000   0.0000 210.0000 15.38683946    17
CTC1_L_00266011-03
1 10042U 26681XX  26075.70032407  .00000000  00000+0  00000-0 0  9992
2 10042  90.0000 120.0000 0000000   0.0000 300.0000 15.38683946    18
CTC1_L_00266011-04
1 10043U 23571PK  26075.70032407  .00000000  00000+0  00000-0 0  9998
2 10043  90.0000 120.0000 0000000   0.0000  30.0000 15.38683946    19
CTC1_L_00266012-01
1 10044U 22802UA  26075.70032407  .00000000  00000+0  00000-0 0  9995
2 10044  90.0000 132.0000 0000000   0.0000 132.0000 15.38683946    16
CTC1_L_00266012-02
1 10045U 24993LM  26075.70032407  .00000000  00000+0  00000-0 0  9999
2 10045  90.0000 132.0000 0000000   0.0000 222.0000 15.38683946    17
CTC1_L_00266012-03
1 10046U 24545ZG  26075.70032407  .00000000  00000+0  00000-0 0  9993
2 10046  90.0000 132.0000 0000000   0.0000 312.0000 15.38683946    18
CTC1_L_00266012-04
1 10047U 25807KY  26075.70032407  .00000000  00000+0  00000-0 0  9996
2 10047  90.0000 132.0000 0000000   0.0000  42.0000 15.38683946    19
CTC1_L_00266013-01
1 10048U 26612MN  26075.70032407  .00000000  00000+0  00000-0 0  9992
2 10048  90.0000 144.0000 0000000   0.0000 144.0000 15.38683946    16
CTC1_L_00266013-02
1 10049U 24650KT  26075.70032407  .00000000  00000+0  00000-0 0  9993
2 10049  90.0000 144.0000 0000000   0.0000 234.0000 15.38683946    17
CTC1_L_00266013-03
1 10050U 22964FD  26075.70032407  .00000000  00000+0  00000-0 0  9991
2 10050  90.0000 144.0000 0000000   0.0000 324.0000 15.38683946    19
CTC1_L_00266013-04
1 10051U 24326NZ  26075.70032407  .00000000  00000+0  00000-0 0  9996
2 10051  90.0000 144.0000 0000000   0.0000  54.0000 15.38683946    10
CTC1_L_00266014-01
1 10052U 25766ST  26075.70032407  .00000000  00000+0  00000-0 0  9996
2 10052  90.0000 156.0000 0000000   0.0000 156.0000 15.38683946    17
CTC1_L_00266014-02
1 10053U 26650UV  26075.70032407  .00000000  00000+0  00000-0 0  9990
2 10053  90.0000 156.0000 0000000   0.0000 246.0000 15.38683946    18
CTC1_L_00266014-03
1 10054U 25816IQ  26075.70032407  .00000000  00000+0  00000-0 0  9994
2 10054  90.0000 156.0000 0000000   0.0000 336.0000 15.38683946    19
CTC1_L_00266014-04
1 10055U 22121OX  26075.70032407  .00000000  00000+0  00000-0 0  9991
2 10055  90.0000 156.0000 0000000   0.0000  66.0000 15.38683946    10
CTC1_L_00266015-01
1 10056U 24708PA  26075.70032407  .00000000  00000+0  00000-0 0  9995
2 10056  90.0000 168.0000 0000000   0.0000 168.0000 15.38683946    17
CTC1_L_00266015-02
1 10057U 23300OZ  26075.70032407  .00000000  00000+0  00000-0 0  9993
2 10057  90.0000 168.0000 0000000   0.0000 258.0000 15.38683946    18
CTC1_L_00266015-03
1 10058U 22822WI  26075.70032407  .00000000  00000+0  00000-0 0  9992
2 10058  90.0000 168.0000 0000000   0.0000 348.0000 15.38683946    19
CTC1_L_00266015-04
1 10059U 24840UB  26075.70032407  .00000000  00000+0  00000-0 0  9995
2 10059  90.0000 168.0000 0000000   0.0000  78.0000 15.38683946    10
CTC1_L_00266016-01
1 10060U 22968JM  26075.70032407  .00000000  00000+0  00000-0 0  9996
2 10060  90.0000 180.0000 0000000   0.0000 180.0000 15.38683946    10
CTC1_L_00266016-02
1 10061U 26826VX  26075.70032407  .00000000  00000+0  00000-0 0  9994
2 10061  90.0000 180.0000 0000000   0.0000 270.0000 15.38683946    11
